start=new Date('2022-02-16T00:00:00.000Z').valueOf();
sats=[{"ELEMENT_SET_NO":"999","BSTAR":"0.00019859000000","OBJECT_NAME":"STARLINK-2483","MEAN_MOTION":"15.06401002","SITE":"AFETR","PERIAPSIS":"546.124","FILE":"3301463","CLASSIFICATION_TYPE":"U","SEMIMAJOR_AXIS":"6925.345","COUNTRY_CODE":"US","INCLINATION":"53.0563","DECAY_DATE":null,"PERIOD":"95.592","ECCENTRICITY":"0.00015690","EPOCH":"2022-02-15T14:55:09.232032","ARG_OF_PERICENTER":"72.1997","MEAN_MOTION_DDOT":"0.0000000000000","MEAN_ELEMENT_THEORY":"SGP4","LAUNCH_DATE":"2021-04-07","MEAN_ANOMALY":"287.9163","GP_ID":"196058130","CENTER_NAME":"EARTH","APOAPSIS":"548.297","OBJECT_TYPE":"PAYLOAD","TIME_SYSTEM":"UTC","REV_AT_EPOCH":"4888","OBJECT_ID":"2021-027BA","EPHEMERIS_TYPE":"0","MEAN_MOTION_DOT":"0.00002678","REF_FRAME":"TEME","RCS_SIZE":"LARGE","TLE_LINE1":"1 48140U 21027BA  22046.62163463  .00002678  00000-0  19859-3 0  9992","RA_OF_ASC_NODE":"349.3713","NORAD_CAT_ID":"48140","TLE_LINE2":"2 48140  53.0563 349.3713 0001569  72.1997 287.9163 15.06401002 48880"},{"RCS_SIZE":"LARGE","TLE_LINE1":"1 48141U 21027BB  22046.84373370  .00003462  00000-0  25126-3 0  9993","RA_OF_ASC_NODE":"348.3845","TLE_LINE2":"2 48141  53.0566 348.3845 0001673  74.0421 286.0752 15.06391224 48932","NORAD_CAT_ID":"48141","OBJECT_TYPE":"PAYLOAD","TIME_SYSTEM":"UTC","CENTER_NAME":"EARTH","GP_ID":"196058382","APOAPSIS":"548.399","OBJECT_ID":"2021-027BB","REV_AT_EPOCH":"4893","MEAN_MOTION_DOT":"0.00003462","EPHEMERIS_TYPE":"0","REF_FRAME":"TEME","COUNTRY_CODE":"US","SEMIMAJOR_AXIS":"6925.375","INCLINATION":"53.0566","ECCENTRICITY":"0.00016730","DECAY_DATE":null,"PERIOD":"95.593","MEAN_MOTION_DDOT":"0.0000000000000","EPOCH":"2022-02-15T20:14:58.591680","ARG_OF_PERICENTER":"74.0421","LAUNCH_DATE":"2021-04-07","MEAN_ANOMALY":"286.0752","MEAN_ELEMENT_THEORY":"SGP4","ELEMENT_SET_NO":"999","MEAN_MOTION":"15.06391224","BSTAR":"0.00025126000000","OBJECT_NAME":"STARLINK-2484","PERIAPSIS":"546.082","SITE":"AFETR","CLASSIFICATION_TYPE":"U","FILE":"3301463"},{"NORAD_CAT_ID":"48142","TLE_LINE2":"2 48142  53.0561 328.0571 0001528  75.7049 284.4110 15.06390768 49216","RA_OF_ASC_NODE":"328.0571","TLE_LINE1":"1 48142U 21027BC  22046.91561076  .00002443  00000-0  18288-3 0  9993","RCS_SIZE":"LARGE","REF_FRAME":"TEME","EPHEMERIS_TYPE":"0","MEAN_MOTION_DOT":"0.00002443","REV_AT_EPOCH":"4921","OBJECT_ID":"2021-027BC","CENTER_NAME":"EARTH","GP_ID":"196059133","APOAPSIS":"548.300","OBJECT_TYPE":"PAYLOAD","TIME_SYSTEM":"UTC","MEAN_ELEMENT_THEORY":"SGP4","MEAN_ANOMALY":"284.4110","LAUNCH_DATE":"2021-04-07","EPOCH":"2022-02-15T21:58:28.769664","ARG_OF_PERICENTER":"75.7049","MEAN_MOTION_DDOT":"0.0000000000000","ECCENTRICITY":"0.00015280","DECAY_DATE":null,"PERIOD":"95.593","SEMIMAJOR_AXIS":"6925.377","COUNTRY_CODE":"US","INCLINATION":"53.0561","FILE":"3301463","CLASSIFICATION_TYPE":"U","SITE":"AFETR","PERIAPSIS":"546.184","BSTAR":"0.00018288000000","OBJECT_NAME":"STARLINK-2485","MEAN_MOTION":"15.06390768","ELEMENT_SET_NO":"999"},{"NORAD_CAT_ID":"48143","TLE_LINE2":"2 48143  53.0563 283.1264 0001597  67.8597 292.2561 15.06389094 49830","TLE_LINE1":"1 48143U 21027BD  22046.89853963  .00002220  00000-0  16793-3 0  9992","RA_OF_ASC_NODE":"283.1264","RCS_SIZE":"LARGE","REF_FRAME":"TEME","EPHEMERIS_TYPE":"0","MEAN_MOTION_DOT":"0.00002220","REV_AT_EPOCH":"4983","OBJECT_ID":"2021-027BD","GP_ID":"196059384","APOAPSIS":"548.353","CENTER_NAME":"EARTH","OBJECT_TYPE":"PAYLOAD","TIME_SYSTEM":"UTC","MEAN_ELEMENT_THEORY":"SGP4","LAUNCH_DATE":"2021-04-07","MEAN_ANOMALY":"292.2561","EPOCH":"2022-02-15T21:33:53.824032","ARG_OF_PERICENTER":"67.8597","MEAN_MOTION_DDOT":"0.0000000000000","PERIOD":"95.593","DECAY_DATE":null,"ECCENTRICITY":"0.00015970","INCLINATION":"53.0563","COUNTRY_CODE":"US","SEMIMAJOR_AXIS":"6925.382","FILE":"3301463","CLASSIFICATION_TYPE":"U","SITE":"AFETR","PERIAPSIS":"546.141","BSTAR":"0.00016793000000","OBJECT_NAME":"STARLINK-2486","MEAN_MOTION":"15.06389094","ELEMENT_SET_NO":"999"},{"PERIAPSIS":"546.121","SITE":"AFETR","CLASSIFICATION_TYPE":"U","FILE":"3301463","ELEMENT_SET_NO":"999","MEAN_MOTION":"15.06397533","BSTAR":"0.00025515000000","OBJECT_NAME":"STARLINK-2487","MEAN_MOTION_DDOT":"0.0000000000000","EPOCH":"2022-02-15T22:09:05.506560","ARG_OF_PERICENTER":"75.0287","LAUNCH_DATE":"2021-04-07","MEAN_ANOMALY":"285.0878","MEAN_ELEMENT_THEORY":"SGP4","INCLINATION":"53.0552","COUNTRY_CODE":"US","SEMIMAJOR_AXIS":"6925.356","PERIOD":"95.592","DECAY_DATE":null,"ECCENTRICITY":"0.00015890","MEAN_MOTION_DOT":"0.00003521","EPHEMERIS_TYPE":"0","REF_FRAME":"TEME","OBJECT_TYPE":"PAYLOAD","TIME_SYSTEM":"UTC","CENTER_NAME":"EARTH","GP_ID":"196058630","APOAPSIS":"548.322","OBJECT_ID":"2021-027BE","REV_AT_EPOCH":"4920","RA_OF_ASC_NODE":"328.0206","TLE_LINE1":"1 48144U 21027BE  22046.92298040  .00003521  00000-0  25515-3 0  9993","TLE_LINE2":"2 48144  53.0552 328.0206 0001589  75.0287 285.0878 15.06397533 49201","NORAD_CAT_ID":"48144","RCS_SIZE":"LARGE"},{"RA_OF_ASC_NODE":"327.9966","TLE_LINE1":"1 48145U 21027BF  22046.92668232  .00006897  00000-0  48146-3 0  9992","TLE_LINE2":"2 48145  53.0562 327.9966 0001568  68.2487 291.8669 15.06401551 49217","NORAD_CAT_ID":"48145","RCS_SIZE":"LARGE","MEAN_MOTION_DOT":"0.00006897","EPHEMERIS_TYPE":"0","REF_FRAME":"TEME","OBJECT_TYPE":"PAYLOAD","TIME_SYSTEM":"UTC","APOAPSIS":"548.295","GP_ID":"196058882","CENTER_NAME":"EARTH","OBJECT_ID":"2021-027BF","REV_AT_EPOCH":"4921","MEAN_MOTION_DDOT":"0.0000000000000","EPOCH":"2022-02-15T22:14:25.352448","ARG_OF_PERICENTER":"68.2487","MEAN_ANOMALY":"291.8669","LAUNCH_DATE":"2021-04-07","MEAN_ELEMENT_THEORY":"SGP4","COUNTRY_CODE":"US","SEMIMAJOR_AXIS":"6925.344","INCLINATION":"53.0562","DECAY_DATE":null,"ECCENTRICITY":"0.00015680","PERIOD":"95.592","PERIAPSIS":"546.123","SITE":"AFETR","CLASSIFICATION_TYPE":"U","FILE":"3301463","ELEMENT_SET_NO":"999","MEAN_MOTION":"15.06401551","BSTAR":"0.00048146000000","OBJECT_NAME":"STARLINK-2488"},{"RCS_SIZE":"LARGE","TLE_LINE2":"2 48146  53.0570 348.3105 0001478  77.6989 282.4166 15.06393308 48925","NORAD_CAT_ID":"48146","TLE_LINE1":"1 48146U 21027BG  22046.85849319  .00004470  00000-0  31885-3 0  9999","RA_OF_ASC_NODE":"348.3105","OBJECT_ID":"2021-027BG","REV_AT_EPOCH":"4892","OBJECT_TYPE":"PAYLOAD","TIME_SYSTEM":"UTC","APOAPSIS":"548.258","GP_ID":"196059633","CENTER_NAME":"EARTH","REF_FRAME":"TEME","MEAN_MOTION_DOT":"0.00004470","EPHEMERIS_TYPE":"0","DECAY_DATE":null,"ECCENTRICITY":"0.00014780","PERIOD":"95.593","INCLINATION":"53.0570","COUNTRY_CODE":"US","SEMIMAJOR_AXIS":"6925.369","MEAN_ANOMALY":"282.4166","LAUNCH_DATE":"2021-04-07","MEAN_ELEMENT_THEORY":"SGP4","MEAN_MOTION_DDOT":"0.0000000000000","EPOCH":"2022-02-15T20:36:13.811616","ARG_OF_PERICENTER":"77.6989","MEAN_MOTION":"15.06393308","BSTAR":"0.00031885000000","OBJECT_NAME":"STARLINK-2489","ELEMENT_SET_NO":"999","CLASSIFICATION_TYPE":"U","FILE":"3301463","PERIAPSIS":"546.210","SITE":"AFETR"},{"REF_FRAME":"TEME","MEAN_MOTION_DOT":"-0.00002520","EPHEMERIS_TYPE":"0","OBJECT_ID":"2021-027BH","REV_AT_EPOCH":"4841","OBJECT_TYPE":"PAYLOAD","TIME_SYSTEM":"UTC","CENTER_NAME":"EARTH","GP_ID":"196035718","APOAPSIS":"548.284","TLE_LINE2":"2 48147  53.0588 354.5038 0001494  59.5851 300.5285 15.06388360 48414","NORAD_CAT_ID":"48147","RA_OF_ASC_NODE":"354.5038","TLE_LINE1":"1 48147U 21027BH  22046.59078372 -.00002520  00000-0 -15036-3 0  9990","RCS_SIZE":"LARGE","CLASSIFICATION_TYPE":"U","FILE":"3301368","PERIAPSIS":"546.215","SITE":"AFETR","MEAN_MOTION":"15.06388360","BSTAR":"-0.00015036000000","OBJECT_NAME":"STARLINK-2490","ELEMENT_SET_NO":"999","LAUNCH_DATE":"2021-04-07","MEAN_ANOMALY":"300.5285","MEAN_ELEMENT_THEORY":"SGP4","MEAN_MOTION_DDOT":"0.0000000000000","EPOCH":"2022-02-15T14:10:43.713408","ARG_OF_PERICENTER":"59.5851","ECCENTRICITY":"0.00014940","DECAY_DATE":null,"PERIOD":"95.593","INCLINATION":"53.0588","COUNTRY_CODE":"US","SEMIMAJOR_AXIS":"6925.384"},{"REV_AT_EPOCH":"4889","OBJECT_ID":"2021-027BJ","GP_ID":"196058131","CENTER_NAME":"EARTH","APOAPSIS":"548.310","TIME_SYSTEM":"UTC","OBJECT_TYPE":"PAYLOAD","REF_FRAME":"TEME","EPHEMERIS_TYPE":"0","MEAN_MOTION_DOT":"0.00001715","RCS_SIZE":"LARGE","NORAD_CAT_ID":"48148","TLE_LINE2":"2 48148  53.0558 348.7663 0001573  69.6452 290.4706 15.06397531 48895","RA_OF_ASC_NODE":"348.7663","TLE_LINE1":"1 48148U 21027BJ  22046.75896957  .00001715  00000-0  13401-3 0  9993","OBJECT_NAME":"STARLINK-2491","BSTAR":"0.00013401000000","MEAN_MOTION":"15.06397531","ELEMENT_SET_NO":"999","FILE":"3301463","CLASSIFICATION_TYPE":"U","SITE":"AFETR","PERIAPSIS":"546.132","DECAY_DATE":null,"ECCENTRICITY":"0.00015730","PERIOD":"95.592","SEMIMAJOR_AXIS":"6925.356","COUNTRY_CODE":"US","INCLINATION":"53.0558","MEAN_ELEMENT_THEORY":"SGP4","LAUNCH_DATE":"2021-04-07","MEAN_ANOMALY":"290.4706","ARG_OF_PERICENTER":"69.6452","EPOCH":"2022-02-15T18:12:54.970848","MEAN_MOTION_DDOT":"0.0000000000000"},{"FILE":"3301463","CLASSIFICATION_TYPE":"U","SITE":"AFETR","PERIAPSIS":"546.183","OBJECT_NAME":"STARLINK-2492","BSTAR":"0.00016462000000","MEAN_MOTION":"15.06400398","ELEMENT_SET_NO":"999","MEAN_ELEMENT_THEORY":"SGP4","MEAN_ANOMALY":"287.4184","LAUNCH_DATE":"2021-04-07","ARG_OF_PERICENTER":"72.6968","EPOCH":"2022-02-15T20:07:01.828704","MEAN_MOTION_DDOT":"0.0000000000000","DECAY_DATE":null,"ECCENTRICITY":"0.00014860","PERIOD":"95.592","INCLINATION":"53.0550","COUNTRY_CODE":"US","SEMIMAJOR_AXIS":"6925.347","REF_FRAME":"TEME","EPHEMERIS_TYPE":"0","MEAN_MOTION_DOT":"0.00002171","REV_AT_EPOCH":"4919","OBJECT_ID":"2021-027BK","GP_ID":"196058383","CENTER_NAME":"EARTH","APOAPSIS":"548.241","TIME_SYSTEM":"UTC","OBJECT_TYPE":"PAYLOAD","NORAD_CAT_ID":"48149","TLE_LINE2":"2 48149  53.0550 328.3909 0001486  72.6968 287.4184 15.06400398 49190","TLE_LINE1":"1 48149U 21027BK  22046.83821561  .00002171  00000-0  16462-3 0  9999","RA_OF_ASC_NODE":"328.3909","RCS_SIZE":"MEDIUM"}];
